1 39419U 13066D   18248.44969859 -.00000394  00000-0 -31796-4 0  9997
2 39419  97.6313 314.6863 0012643 218.7350 141.2966 14.93878994260975